ONEWEB-0634             
1 56075U 23043AF  26185.64208736  .00000181  00000+0  44568-3 0  9992
2 56075  87.8988 255.7520 0002335  96.1807 263.9589 13.15547829158699
ONEWEB-0635             
1 56076U 23043AG  26186.16973238  .00000094  00000+0  21685-3 0  9995
2 56076  87.9000 255.6108 0001807  95.0895 265.0441 13.15547702158796
ONEWEB-0636             
1 56077U 23043AH  26186.16180128  .00000009  00000+0 -96196-5 0  9992
2 56077  87.8995 255.6184 0001895  94.5782 265.5565 13.15547034158777
ONEWEB-0637             
1 56078U 23043AJ  26186.15547006 -.00000055  00000+0 -18019-3 0  9992
2 56078  87.8992 255.6351 0002069  90.5878 269.5490 13.15547795158794
ONEWEB-0647             
1 56079U 23043AK  26186.15072013 -.00000043  00000+0 -14775-3 0  9996
2 56079  87.8993 255.6483 0001910 100.6466 259.4879 13.15548669158781
ONEWEB-0651             
1 56080U 23043AL  26186.29807946  .00000028  00000+0  40011-4 0  9998
2 56080  87.8992 255.6123 0001926  92.5954 267.5397 13.15547933160007
ONEWEB-0718             
1 56081U 23043AM  26186.14121422 -.00000041  00000+0 -14407-3 0  9997
2 56081  87.8994 255.6243 0002561  98.8172 261.3249 13.15549451158798
ONEWEB-0561             
1 56710U 23068A   26186.22776718  .00000012  00000+0 -30957-5 0  9993
2 56710  87.9197 270.8488 0001649 100.0531 260.0789 13.20774440151886
ONEWEB-0668             
1 56711U 23068B   26186.06021549  .00000024  00000+0  30162-4 0  9990
2 56711  87.9084 225.2229 0002483  86.7743 273.3672 13.16594693154135
ONEWEB-0676             
1 56712U 23068C   26186.06813498  .00000008  00000+0 -11837-4 0  9994
2 56712  87.9081 225.2275 0001754  89.2846 270.8486 13.16593883154052
ONEWEB-0677             
1 56713U 23068D   26185.68571451  .00000029  00000+0  38364-4 0  9998
2 56713  87.9194 270.9480 0002078  88.4648 271.6723 13.20770935152112
ONEWEB-0678             
1 56714U 23068E   26186.18557842  .00000224  00000+0  56024-3 0  9992
2 56714  87.9003 255.6091 0001921 106.5458 253.5884 13.15548018151651
ONEWEB-0679             
1 56715U 23068F   26185.34299075  .00000119  00000+0  27742-3 0  9999
2 56715  87.9085 225.3627 0002245  80.2077 279.9307 13.16594423153988
ONEWEB-0680             
1 56716U 23068G   26185.58175657  .00000076  00000+0  15252-3 0  9990
2 56716  87.9249 240.5112 0002456  86.4675 273.6740 13.21825376153392
ONEWEB-0681             
1 56717U 23068H   26186.16797882  .00000181  00000+0  40584-3 0  9999
2 56717  87.9249 240.3951 0001303  79.3546 280.7734 13.21824286153469
ONEWEB-0682             
1 56718U 23068J   26185.90512024 -.00000111  00000+0 -32908-3 0  9990
2 56718  87.9002 255.6653 0002404  88.3666 271.7739 13.15547774151786
